{"type": "FeatureCollection", "features": [{"type": "Feature", "properties": {"nombre": "Chía", "fuente": "OpenStreetMap relation 10687625 (aprox.; no es la capa oficial DANE)"}, "geometry": {"type": "Polygon", "coordinates": [[[-74.0942989, 4.8493865], [-74.0907829, 4.8476552], [-74.0868238, 4.8470582], [-74.0777884, 4.8407529], [-74.0782978, 4.8401195], [-74.0776309, 4.8394664], [-74.0780922, 4.8390746], [-74.0787543, 4.8393053], [-74.0792831, 4.8382146], [-74.0806972, 4.837926], [-74.0804652, 4.8362881], [-74.0814745, 4.8366023], [-74.0820243, 4.8350141], [-74.07641, 4.8369487], [-74.0736716, 4.836421], [-74.0717513, 4.8344183], [-74.0709389, 4.8319537], [-74.0706846, 4.8285961], [-74.0685797, 4.8288371], [-74.0669588, 4.8281608], [-74.0673705, 4.8329285], [-74.0658658, 4.8356315], [-74.0652255, 4.8354338], [-74.0648487, 4.8346555], [-74.0650891, 4.8322248], [-74.0648135, 4.8307489], [-74.064272, 4.8304914], [-74.0638724, 4.8317957], [-74.0641735, 4.83401], [-74.0630247, 4.835718], [-74.0626757, 4.8351444], [-74.0627901, 4.8322848], [-74.0605761, 4.8276009], [-74.0599582, 4.8289779], [-74.0559572, 4.8290701], [-74.0538973, 4.8313601], [-74.0533125, 4.833243], [-74.0520961, 4.8327667], [-74.0503795, 4.8309271], [-74.0479419, 4.8307739], [-74.0463025, 4.8301111], [-74.0450124, 4.8308442], [-74.0441408, 4.8331205], [-74.0410598, 4.8290301], [-74.0407678, 4.8268604], [-74.0338129, 4.8254962], [-74.0314231, 4.8234743], [-74.0258145, 4.8232618], [-74.0237346, 4.8217996], [-74.0212439, 4.822482], [-74.0168246, 4.8210472], [-74.0131867, 4.8216315], [-74.0088737, 4.8207227], [-74.0079832, 4.8209686], [-74.0069962, 4.8218346], [-74.0063279, 4.8233437], [-74.0059428, 4.8267803], [-74.0039472, 4.8348411], [-74.0030675, 4.8368295], [-74.0004282, 4.8401222], [-74.0004282, 4.8433722], [-73.9995913, 4.8469856], [-73.9959435, 4.8490809], [-73.9949102, 4.8508058], [-73.9948251, 4.8525028], [-73.9935052, 4.8555404], [-73.9919298, 4.8578823], [-73.9900649, 4.8638387], [-73.9886769, 4.87503], [-73.9872122, 4.8774651], [-73.9876891, 4.8788651], [-73.9868801, 4.8791281], [-73.9855943, 4.8815547], [-73.9858923, 4.8821317], [-73.9852281, 4.8837353], [-73.9860541, 4.88578], [-73.9831934, 4.8994663], [-73.9813373, 4.9025876], [-73.983758, 4.9026799], [-73.9845504, 4.9035863], [-73.9855872, 4.9037617], [-73.9873479, 4.9026507], [-73.9893434, 4.9030308], [-73.9911824, 4.9037617], [-73.992229, 4.9049897], [-73.9965036, 4.906666], [-73.9978242, 4.9087906], [-74.0016174, 4.9098582], [-74.0004956, 4.9131955], [-74.006449, 4.9178744], [-74.0057422, 4.9144178], [-74.0059756, 4.9137537], [-74.0068151, 4.913552], [-74.0090078, 4.9145594], [-74.0100351, 4.9139728], [-74.0102148, 4.9133689], [-74.0083963, 4.9132019], [-74.0074763, 4.9124028], [-74.0072845, 4.9115343], [-74.0087195, 4.9113459], [-74.0093015, 4.9106645], [-74.0063471, 4.9098668], [-74.005942, 4.9073147], [-74.0046814, 4.9079988], [-74.003406, 4.9074015], [-74.0042992, 4.9046209], [-74.0060775, 4.9028117], [-74.0074696, 4.9032593], [-74.0102161, 4.902793], [-74.0101022, 4.9023053], [-74.0092197, 4.9020407], [-74.009209, 4.901231], [-74.01191, 4.8974548], [-74.013298, 4.8989768], [-74.0136454, 4.8983728], [-74.0128702, 4.897388], [-74.0129024, 4.8966277], [-74.0141724, 4.8964888], [-74.0156463, 4.8953998], [-74.0171403, 4.8950791], [-74.0177169, 4.8907925], [-74.0170276, 4.8875909], [-74.0188247, 4.8880051], [-74.019388, 4.8864417], [-74.0213621, 4.8843519], [-74.0245807, 4.8836143], [-74.0246147, 4.8846175], [-74.026278, 4.8833973], [-74.0276516, 4.8860264], [-74.035167, 4.8892941], [-74.03561, 4.8876031], [-74.036139, 4.8877118], [-74.0389055, 4.890014], [-74.0416332, 4.891079], [-74.0423421, 4.8895178], [-74.0494081, 4.8927187], [-74.0496552, 4.8934885], [-74.0483252, 4.894077], [-74.0491047, 4.8950583], [-74.0497342, 4.8949769], [-74.049948, 4.8959756], [-74.048282, 4.8958837], [-74.0485759, 4.896902], [-74.0513414, 4.8985029], [-74.0558013, 4.9021383], [-74.0570928, 4.9024566], [-74.0581932, 4.9003492], [-74.0707467, 4.9105612], [-74.0734611, 4.9104261], [-74.0767933, 4.9112226], [-74.0779169, 4.9100897], [-74.0783675, 4.9083156], [-74.0795772, 4.9068057], [-74.0798025, 4.9042589], [-74.0805186, 4.9024043], [-74.0795232, 4.896964], [-74.0810835, 4.897161], [-74.0814679, 4.8948874], [-74.082495, 4.8929385], [-74.0815975, 4.8853651], [-74.0808624, 4.8846043], [-74.0816026, 4.884009], [-74.0819209, 4.8819427], [-74.0828211, 4.8809812], [-74.0829388, 4.8785776], [-74.0822254, 4.8756984], [-74.0829302, 4.8709672], [-74.0834884, 4.8699626], [-74.082676, 4.8661487], [-74.0841475, 4.86427], [-74.0862285, 4.8634625], [-74.0880038, 4.8582956], [-74.0886274, 4.8572264], [-74.0906689, 4.8563569], [-74.0907033, 4.8547857], [-74.0927933, 4.8532211], [-74.0942989, 4.8493865]]]}}]}